NORAD_CAT_ID,OBJECT_NAME,OBJECT_TYPE,EPOCH,MEAN_MOTION,ECCENTRICITY,INCLINATION,RA_OF_ASC_NODE,ARG_OF_PERICENTER,MEAN_ANOMALY,BSTAR,MEAN_MOTION_DOT,MEAN_MOTION_DDOT,TLE_LINE0,TLE_LINE1,TLE_LINE2,SEMIMAJOR_AXIS,PERIOD,APOGEE,PERIGEE,DECAYED
52487.0,STARLINK-3902,PAYLOAD,2023-09-08 04:54:12,15.08839493,0.0001237,53.2178,190.0204,92.3278,267.7855,-2.0707e-05,-6.17e-06,0.0,0 STARLINK-3902,1 52487U 22049AN  23251.20431367 -.00000617  00000-0 -20707-4 0  9998,2 52487  53.2178 190.0204 0001237  92.3278 267.7855 15.08839493 75725,6917.882,95.438,540.603,538.891,0.0
52487.0,STARLINK-3902,PAYLOAD,2023-09-09 04:44:59,15.08847225,0.0001177,53.2171,185.56,95.4635,264.6492,9.0888e-05,1.159e-05,0.0,0 STARLINK-3902,1 52487U 22049AN  23252.19790852  .00001159  00000-0  90888-4 0  9991,2 52487  53.2171 185.5600 0001177  95.4635 264.6492 15.08847225 74792,6917.858,95.437,540.538,538.909,0.0
52487.0,STARLINK-3902,PAYLOAD,2023-09-09 12:41:55,15.08841913,0.0001385,53.2173,184.074,91.055,269.06,0.00015702,2.212e-05,0.0,0 STARLINK-3902,1 52487U 22049AN  23252.52911145  .00002212  00000-0  15702-3 0  9990,2 52487  53.2173 184.0740 0001385  91.0550 269.0600 15.08841913 75926,6917.875,95.437,540.698,538.781,0.0
52487.0,STARLINK-3902,PAYLOAD,2023-09-10 01:25:00,15.08835514,0.0001415,53.218,181.6946,82.5509,277.5644,0.00013089,1.796e-05,0.0,0 STARLINK-3902,1 52487U 22049AN  23253.05903792  .00001796  00000-0  13089-3 0  9990,2 52487  53.2180 181.6946 0001415  82.5509 277.5644 15.08835514 74929,6917.894,95.438,540.738,538.78,0.0
52487.0,STARLINK-3902,PAYLOAD,2023-09-10 04:35:47,15.08836716,0.0001426,53.218,181.0987,85.5097,274.6058,0.00017046,2.426e-05,0.0,0 STARLINK-3902,1 52487U 22049AN  23253.19151621  .00002426  00000-0  17046-3 0  9999,2 52487  53.2180 181.0987 0001426  85.5097 274.6058 15.08836716 76020,6917.89,95.438,540.742,538.769,0.0
52487.0,STARLINK-3902,PAYLOAD,2023-09-11 04:26:34,15.08843318,0.0001435,53.2178,176.638,84.4051,275.7105,2.8577e-05,1.67e-06,0.0,0 STARLINK-3902,1 52487U 22049AN  23254.18511701  .00000167  00000-0  28577-4 0  9990,2 52487  53.2178 176.6380 0001435  84.4051 275.7105 15.08843318 75099,6917.87,95.437,540.728,538.743,0.0
52487.0,STARLINK-3902,PAYLOAD,2023-09-11 12:23:29,15.08845897,0.0001353,53.2175,175.1521,88.1294,271.9853,7.6609e-05,9.32e-06,0.0,0 STARLINK-3902,1 52487U 22049AN  23254.51631333  .00000932  00000-0  76609-4 0  9990,2 52487  53.2175 175.1521 0001353  88.1294 271.9853 15.08845897 76224,6917.862,95.437,540.663,538.791,0.0
52487.0,STARLINK-3902,PAYLOAD,2023-09-12 01:06:34,15.08831603,0.0001332,53.2171,172.773,92.7512,267.3633,0.00035209,5.319e-05,0.0,0 STARLINK-3902,1 52487U 22049AN  23255.04623790  .00005319  00000-0  35209-3 0  9991,2 52487  53.2171 172.7730 0001332  92.7512 267.3633 15.08831603 75220,6917.906,95.438,540.693,538.85,0.0
52487.0,STARLINK-3902,PAYLOAD,2023-09-12 04:17:20,15.08831386,0.00015,53.2177,172.1778,95.8618,264.2545,0.00037408,5.669e-05,0.0,0 STARLINK-3902,1 52487U 22049AN  23255.17871484  .00005669  00000-0  37408-3 0  9991,2 52487  53.2177 172.1778 0001500  95.8618 264.2545 15.08831386 76328,6917.907,95.438,540.809,538.734,0.0
52487.0,STARLINK-3902,PAYLOAD,2023-09-12 21:46:35,15.08840526,0.0001242,53.2168,168.9066,94.3665,265.7469,5.0876e-05,5.22e-06,0.0,0 STARLINK-3902,1 52487U 22049AN  23255.90735699  .00000522  00000-0  50876-4 0  9997,2 52487  53.2168 168.9066 0001242  94.3665 265.7469 15.08840526 76439,6917.879,95.438,540.603,538.885,0.0
52487.0,STARLINK-3902,PAYLOAD,2023-09-13 04:08:07,15.08848889,0.0001369,53.2176,167.7156,93.2283,266.8865,0.00013194,1.813e-05,0.0,0 STARLINK-3902,1 52487U 22049AN  23256.17231003  .00001813  00000-0  13194-3 0  9992,2 52487  53.2176 167.7156 0001369  93.2283 266.8865 15.08848889 75395,6917.853,95.437,540.665,538.771,0.0
52487.0,STARLINK-3902,PAYLOAD,2023-09-13 21:37:22,15.08843796,0.0001433,53.2173,164.4437,92.9515,267.1641,2.8857e-05,1.71e-06,0.0,0 STARLINK-3902,1 52487U 22049AN  23256.90095386  .00000171  00000-0  28857-4 0  9994,2 52487  53.2173 164.4437 0001433  92.9515 267.1641 15.08843796 76584,6917.869,95.437,540.725,538.742,0.0
52487.0,STARLINK-3902,PAYLOAD,2023-09-14 02:23:31,15.0884308,0.0001519,53.2182,163.5536,95.0302,265.0863,0.00011779,1.587e-05,0.0,0 STARLINK-3902,1 52487U 22049AN  23257.09967200  .00001587  00000-0  11779-3 0  9994,2 52487  53.2182 163.5536 0001519  95.0302 265.0863 15.08843080 75530,6917.871,95.437,540.787,538.685,0.0
52487.0,STARLINK-3902,PAYLOAD,2023-09-14 03:58:54,15.08843596,0.0001511,53.2178,163.2564,91.4985,268.618,0.00013417,1.848e-05,0.0,0 STARLINK-3902,1 52487U 22049AN  23257.16591301  .00001848  00000-0  13417-3 0  9998,2 52487  53.2178 163.2564 0001511  91.4985 268.6180 15.08843596 76626,6917.869,95.437,540.78,538.689,0.0
52487.0,STARLINK-3902,PAYLOAD,2023-09-14 18:17:23,15.08835786,0.0001596,53.2177,160.5823,76.1984,283.9186,-3.2821e-05,-8.1e-06,0.0,0 STARLINK-3902,1 52487U 22049AN  23257.76207921 -.00000810  00000-0 -32821-4 0  9997,2 52487  53.2177 160.5823 0001596  76.1984 283.9186 15.08835786 75633,6917.893,95.438,540.862,538.654,0.0
52487.0,STARLINK-3902,PAYLOAD,2023-09-14 21:28:09,15.08835497,0.0001431,53.2173,159.9854,86.7639,273.3517,-8.6497e-05,-1.664e-05,0.0,0 STARLINK-3902,1 52487U 22049AN  23257.89455857 -.00001664  00000-0 -86497-4 0  9990,2 52487  53.2173 159.9854 0001431  86.7639 273.3517 15.08835497 76739,6917.894,95.438,540.749,538.769,0.0
52487.0,STARLINK-3902,PAYLOAD,2023-09-15 03:49:42,15.08841207,0.0001342,53.2174,158.7971,80.1959,279.9185,9.4987e-06,-1.37e-06,0.0,0 STARLINK-3902,1 52487U 22049AN  23258.15951949 -.00000137  00000-0  94987-5 0  9990,2 52487  53.2174 158.7971 0001342  80.1959 279.9185 15.08841207 76774,6917.877,95.437,540.67,538.813,0.0
52487.0,STARLINK-3902,PAYLOAD,2023-09-16 00:29:42,15.08848613,0.0001337,53.2179,154.9337,96.4445,263.6699,0.00013574,1.874e-05,0.0,0 STARLINK-3902,1 52487U 22049AN  23259.02063367  .00001874  00000-0  13574-3 0  9994,2 52487  53.2179 154.9337 0001337  96.4445 263.6699 15.08848613 75820,6917.854,95.437,540.644,538.794,0.0
52487.0,STARLINK-3902,PAYLOAD,2023-09-16 03:40:28,15.08852711,0.0001271,53.2172,154.3377,86.6023,273.5115,0.00017158,2.445e-05,0.0,0 STARLINK-3902,1 52487U 22049AN  23259.15311101  .00002445  00000-0  17158-3 0  9997,2 52487  53.2172 154.3377 0001271  86.6023 273.5115 15.08852711 76920,6917.842,95.437,540.586,538.827,0.0
52487.0,STARLINK-3902,PAYLOAD,2023-09-17 01:55:53,15.08839535,0.0001322,53.2163,150.1736,81.5629,278.5513,0.0001003,1.309e-05,0.0,0 STARLINK-3902,1 52487U 22049AN  23260.08048180  .00001309  00000-0  10030-3 0  9995,2 52487  53.2163 150.1736 0001322  81.5629 278.5513 15.08839535 75987,6917.882,95.438,540.661,538.832,0.0
52487.0,STARLINK-3902,PAYLOAD,2023-09-17 03:31:16,15.08841338,0.0001315,53.2162,149.8761,81.9558,278.1584,0.00012918,1.769e-05,0.0,0 STARLINK-3902,1 52487U 22049AN  23260.14672130  .00001769  00000-0  12918-3 0  9997,2 52487  53.2162 149.8761 0001315  81.9558 278.1584 15.08841338 77076,6917.876,95.437,540.651,538.832,0.0
52487.0,STARLINK-3902,PAYLOAD,2023-09-18 01:46:40,15.0885362,0.0001284,53.2158,145.7127,87.173,272.9409,0.00017363,2.478e-05,0.0,0 STARLINK-3902,1 52487U 22049AN  23261.07407556  .00002478  00000-0  17363-3 0  9995,2 52487  53.2158 145.7127 0001284  87.1730 272.9409 15.08853620 76138,6917.839,95.437,540.592,538.816,0.0
52487.0,STARLINK-3902,PAYLOAD,2023-09-18 22:26:41,15.08842975,0.0001322,53.2154,141.8473,91.6762,268.4381,0.00014985,2.098e-05,0.0,0 STARLINK-3902,1 52487U 22049AN  23261.93520239  .00002098  00000-0  14985-3 0  9999,2 52487  53.2154 141.8473 0001322  91.6762 268.4381 15.08842975 77347,6917.871,95.437,540.651,538.822,0.0
52487.0,STARLINK-3902,PAYLOAD,2023-09-19 01:37:27,15.08847686,0.0001342,53.2154,141.2521,91.9592,268.1554,0.00021638,3.158e-05,0.0,0 STARLINK-3902,1 52487U 22049AN  23262.06768010  .00003158  00000-0  21638-3 0  9996,2 52487  53.2154 141.2521 0001342  91.9592 268.1554 15.08847686 76286,6917.857,95.437,540.65,538.794,0.0
52487.0,STARLINK-3902,PAYLOAD,2023-09-20 01:28:13,15.08862918,0.0001459,53.2155,136.7917,88.909,271.2069,0.00048257,7.405e-05,0.0,0 STARLINK-3902,1 52487U 22049AN  23263.06127063  .00007405  00000-0  48257-3 0  9999,2 52487  53.2155 136.7917 0001459  88.9090 271.2069 15.08862918 76431,6917.81,95.436,540.685,538.666,0.0
52487.0,STARLINK-3902,PAYLOAD,2023-09-20 18:57:29,15.08827535,0.0001439,53.2158,133.521,100.8511,259.2643,-0.00024197,-4.135e-05,0.0,0 STARLINK-3902,1 52487U 22049AN  23263.78992452 -.00004135  00000-0 -24197-3 0  9996,2 52487  53.2158 133.5210 0001439 100.8511 259.2643 15.08827535 76547,6917.918,95.438,540.779,538.788,0.0
52487.0,STARLINK-3902,PAYLOAD,2023-09-20 22:08:16,15.08813707,0.0001586,53.216,132.9268,122.1751,237.9395,-0.00057864,-9.479e-05,0.0,0 STARLINK-3902,1 52487U 22049AN  23263.92240816 -.00009479  00000-0 -57864-3 0  9995,2 52487  53.2160 132.9268 0001586 122.1751 237.9395 15.08813707 77647,6917.961,95.439,540.923,538.729,0.0
52487.0,STARLINK-3902,PAYLOAD,2023-09-21 01:19:02,15.08824292,0.0001435,53.216,132.3333,87.0362,273.0795,-0.00021321,-3.678e-05,0.0,0 STARLINK-3902,1 52487U 22049AN  23264.05488780 -.00003678  00000-0 -21321-3 0  9998,2 52487  53.2160 132.3333 0001435  87.0362 273.0795 15.08824292 77662,6917.928,95.439,540.786,538.801,0.0
52487.0,STARLINK-3902,PAYLOAD,2023-09-21 21:59:03,15.08839484,0.0001369,53.2162,128.4657,106.3034,253.8109,0.00040959,6.237e-05,0.0,0 STARLINK-3902,1 52487U 22049AN  23264.91600854  .00006237  00000-0  40959-3 0  9991,2 52487  53.2162 128.4657 0001369 106.3034 253.8109 15.08839484 77794,6917.882,95.438,540.694,538.8,0.0
52487.0,STARLINK-3902,PAYLOAD,2023-09-21 23:34:26,15.08841787,0.0001458,53.2161,128.1704,107.759,252.3561,0.00028854,4.307e-05,0.0,0 STARLINK-3902,1 52487U 22049AN  23264.98224910  .00004307  00000-0  28854-3 0  9999,2 52487  53.2161 128.1704 0001458 107.7590 252.3561 15.08841787 76721,6917.875,95.437,540.749,538.731,0.0
